[
    {
        "Altitude(m)": 624792.7957819399,
        "Argument of Periapsis(deg)": 0.0,
        "Eccentricity": 0.0,
        "Inclination(deg)": 60.0,
        "Latitude(deg)": -59.147159452133415,
        "Longitude(deg)": -130.97373128290752,
        "Mean Anomaly(deg)": 261.8182,
        "RAAN(deg)": 75.0,
        "Satellite Name": "Test1 346",
        "Satellite Number": 346,
        "Semi-Major Axis(m)": 6980739.136638005,
        "Time(s)": 0
    },
    {
        "Altitude(m)": 624842.1882688375,
        "Argument of Periapsis(deg)": 0.00010418945913296404,
        "Eccentricity": 0.0,
        "Inclination(deg)": 60.0,
        "Latitude(deg)": -59.2892446095035,
        "Longitude(deg)": -129.84422557001795,
        "Mean Anomaly(deg)": 262.43830614546187,
        "RAAN(deg)": 74.99957995086027,
        "Satellite Name": "Test1 346",
        "Satellite Number": 346,
        "Semi-Major Axis(m)": 6980739.136638005,
        "Time(s)": 10
    }
]